ONEWEB-0371             
1 49297U 21090U   26195.78717673  .00000029  00000+0  39888-4 0  9992
2 49297  87.9191 299.4722 0002097 102.0345 258.1023 13.19725011230091
ONEWEB-0372             
1 49298U 21090V   26195.73764145  .00000016  00000+0  79985-5 0  9993
2 49298  87.9189 268.9523 0002088 100.9091 259.2278 13.20769687233472
ONEWEB-0373             
1 49299U 21090W   26195.68727626  .00000077  00000+0  15705-3 0  9996
2 49299  87.9183 268.9619 0002086  96.5871 263.5500 13.20772980234654
ONEWEB-0374             
1 49300U 21090X   26195.74948225 -.00000089  00000+0 -27572-3 0  9996
2 49300  87.8969 284.2069 0001556  88.5166 271.6142 13.14503049231185
ONEWEB-0375             
1 49301U 21090Y   26195.75125158  .00000041  00000+0  69124-4 0  9996
2 49301  87.9186 268.9416 0001689  86.2461 273.8866 13.20772753234168
ONEWEB-0376             
1 49302U 21090Z   26195.78558965  .00000048  00000+0  86522-4 0  9994
2 49302  87.9191 299.4723 0002064 105.8943 254.2418 13.19726371230093
ONEWEB-0377             
1 49303U 21090AA  26195.73792314 -.00000015  00000+0 -67728-4 0  9991
2 49303  87.9187 268.9462 0001942  94.9909 265.1446 13.20772933234154
ONEWEB-0378             
1 49304U 21090AB  26195.75813825  .00000030  00000+0  42739-4 0  9995
2 49304  87.9182 268.9459 0001928  98.4653 261.6699 13.20771531233428
ONEWEB-0379             
1 49305U 21090AC  26195.74473035 -.00000152  00000+0 -44425-3 0  9990
2 49305  87.8969 284.2181 0001897  99.7439 260.3905 13.14502269231185
ONEWEB-0380             
1 49306U 21090AD  26195.78244142 -.00000051  00000+0 -16010-3 0  9997
2 49306  87.9186 299.4761 0002019  95.4331 264.7032 13.19726610230069
ONEWEB-0381             
1 49307U 21090AE  26195.73440263 -.00000100  00000+0 -27873-3 0  9999
2 49307  87.9186 268.9518 0001796  94.2702 265.8637 13.20773171233467
ONEWEB-0382             
1 49308U 21090AF  26195.72096016  .00000019  00000+0  14451-4 0  9998
2 49308  87.9185 268.9485 0001777  98.3614 261.7721 13.20771714233455
ONEWEB-0383             
1 49309U 21090AG  26195.73838667 -.00000145  00000+0 -42632-3 0  9999
2 49309  87.8973 284.2112 0001853 101.2302 258.9036 13.14503113231219
ONEWEB-0384             
1 49310U 21090AH  26195.70872833  .00000040  00000+0  67389-4 0  9990
2 49310  87.9189 268.9945 0001587  99.0733 261.0580 13.20814198233463
ONEWEB-0385             
1 49311U 21090AJ  26195.71421189  .00000079  00000+0  16290-3 0  9992
2 49311  87.9183 268.9551 0001841  96.4452 263.6891 13.20770248233430
ONEWEB-0386             
1 49312U 21090AK  26195.73104207 -.00000058  00000+0 -17343-3 0  9993
2 49312  87.9190 268.9436 0001786  98.0859 262.0477 13.20773257233456
