{"fetched_at":"2026-07-15T06:35:32.501Z","source":"https://celestrak.org/NORAD/elements/gp.php?GROUP=oneweb&FORMAT=JSON","constellation":"oneweb","records":[{"OBJECT_NAME":"ONEWEB-0371","OBJECT_ID":"2021-090U","EPOCH":"2026-07-14T18:53:32.069472","CLASSIFICATION_TYPE":"U","MEAN_MOTION":13.19725011,"ECCENTRICITY":0.00020975,"INCLINATION":87.9191,"RA_OF_ASC_NODE":299.4722,"ARG_OF_PERICENTER":102.0345,"MEAN_ANOMALY":258.1023,"EPHEMERIS_TYPE":0,"NORAD_CAT_ID":49297,"ELEMENT_SET_NO":999,"REV_AT_EPOCH":23009,"BSTAR":0.000039888008,"MEAN_MOTION_DOT":2.9e-7,"MEAN_MOTION_DDOT":0},{"OBJECT_NAME":"ONEWEB-0372","OBJECT_ID":"2021-090V","EPOCH":"2026-07-14T17:42:12.221280","CLASSIFICATION_TYPE":"U","MEAN_MOTION":13.20769687,"ECCENTRICITY":0.00020883,"INCLINATION":87.9189,"RA_OF_ASC_NODE":268.9523,"ARG_OF_PERICENTER":100.9091,"MEAN_ANOMALY":259.2278,"EPHEMERIS_TYPE":0,"NORAD_CAT_ID":49298,"ELEMENT_SET_NO":999,"REV_AT_EPOCH":23347,"BSTAR":0.000007998528,"MEAN_MOTION_DOT":1.6e-7,"MEAN_MOTION_DDOT":0},{"OBJECT_NAME":"ONEWEB-0373","OBJECT_ID":"2021-090W","EPOCH":"2026-07-14T16:29:40.668864","CLASSIFICATION_TYPE":"U","MEAN_MOTION":13.2077298,"ECCENTRICITY":0.00020866,"INCLINATION":87.9183,"RA_OF_ASC_NODE":268.9619,"ARG_OF_PERICENTER":96.5871,"MEAN_ANOMALY":263.55,"EPHEMERIS_TYPE":0,"NORAD_CAT_ID":49299,"ELEMENT_SET_NO":999,"REV_AT_EPOCH":23465,"BSTAR":0.00015705005,"MEAN_MOTION_DOT":7.7e-7,"MEAN_MOTION_DDOT":0},{"OBJECT_NAME":"ONEWEB-0374","OBJECT_ID":"2021-090X","EPOCH":"2026-07-14T17:59:15.266400","CLASSIFICATION_TYPE":"U","MEAN_MOTION":13.14503049,"ECCENTRICITY":0.00015562,"INCLINATION":87.8969,"RA_OF_ASC_NODE":284.2069,"ARG_OF_PERICENTER":88.5166,"MEAN_ANOMALY":271.6142,"EPHEMERIS_TYPE":0,"NORAD_CAT_ID":49300,"ELEMENT_SET_NO":999,"REV_AT_EPOCH":23118,"BSTAR":-0.00027572462,"MEAN_MOTION_DOT":-8.9e-7,"MEAN_MOTION_DDOT":0},{"OBJECT_NAME":"ONEWEB-0375","OBJECT_ID":"2021-090Y","EPOCH":"2026-07-14T18:01:48.136512","CLASSIFICATION_TYPE":"U","MEAN_MOTION":13.20772753,"ECCENTRICITY":0.00016893,"INCLINATION":87.9186,"RA_OF_ASC_NODE":268.9416,"ARG_OF_PERICENTER":86.2461,"MEAN_ANOMALY":273.8866,"EPHEMERIS_TYPE":0,"NORAD_CAT_ID":49301,"ELEMENT_SET_NO":999,"REV_AT_EPOCH":23416,"BSTAR":0.0000691238,"MEAN_MOTION_DOT":4.1e-7,"MEAN_MOTION_DDOT":0},{"OBJECT_NAME":"ONEWEB-0376","OBJECT_ID":"2021-090Z","EPOCH":"2026-07-14T18:51:14.945760","CLASSIFICATION_TYPE":"U","MEAN_MOTION":13.19726371,"ECCENTRICITY":0.00020648,"INCLINATION":87.9191,"RA_OF_ASC_NODE":299.4723,"ARG_OF_PERICENTER":105.8943,"MEAN_ANOMALY":254.2418,"EPHEMERIS_TYPE":0,"NORAD_CAT_ID":49302,"ELEMENT_SET_NO":999,"REV_AT_EPOCH":23009,"BSTAR":0.000086521825,"MEAN_MOTION_DOT":4.8e-7,"MEAN_MOTION_DDOT":0},{"OBJECT_NAME":"ONEWEB-0377","OBJECT_ID":"2021-090AA","EPOCH":"2026-07-14T17:42:36.559296","CLASSIFICATION_TYPE":"U","MEAN_MOTION":13.20772933,"ECCENTRICITY":0.00019428,"INCLINATION":87.9187,"RA_OF_ASC_NODE":268.9462,"ARG_OF_PERICENTER":94.9909,"MEAN_ANOMALY":265.1446,"EPHEMERIS_TYPE":0,"NORAD_CAT_ID":49303,"ELEMENT_SET_NO":999,"REV_AT_EPOCH":23415,"BSTAR":-0.000067727528,"MEAN_MOTION_DOT":-1.5e-7,"MEAN_MOTION_DDOT":0},{"OBJECT_NAME":"ONEWEB-0378","OBJECT_ID":"2021-090AB","EPOCH":"2026-07-14T18:11:43.144800","CLASSIFICATION_TYPE":"U","MEAN_MOTION":13.20771531,"ECCENTRICITY":0.00019287,"INCLINATION":87.9182,"RA_OF_ASC_NODE":268.9459,"ARG_OF_PERICENTER":98.4653,"MEAN_ANOMALY":261.6699,"EPHEMERIS_TYPE":0,"NORAD_CAT_ID":49304,"ELEMENT_SET_NO":999,"REV_AT_EPOCH":23342,"BSTAR":0.00004273907,"MEAN_MOTION_DOT":3e-7,"MEAN_MOTION_DDOT":0},{"OBJECT_NAME":"ONEWEB-0379","OBJECT_ID":"2021-090AC","EPOCH":"2026-07-14T17:52:24.702240","CLASSIFICATION_TYPE":"U","MEAN_MOTION":13.14502269,"ECCENTRICITY":0.00018972,"INCLINATION":87.8969,"RA_OF_ASC_NODE":284.2181,"ARG_OF_PERICENTER":99.7439,"MEAN_ANOMALY":260.3905,"EPHEMERIS_TYPE":0,"NORAD_CAT_ID":49305,"ELEMENT_SET_NO":999,"REV_AT_EPOCH":23118,"BSTAR":-0.00044425111,"MEAN_MOTION_DOT":-0.00000152,"MEAN_MOTION_DDOT":0},{"OBJECT_NAME":"ONEWEB-0380","OBJECT_ID":"2021-090AD","EPOCH":"2026-07-14T18:46:42.938688","CLASSIFICATION_TYPE":"U","MEAN_MOTION":13.1972661,"ECCENTRICITY":0.00020192,"INCLINATION":87.9186,"RA_OF_ASC_NODE":299.4761,"ARG_OF_PERICENTER":95.4331,"MEAN_ANOMALY":264.7032,"EPHEMERIS_TYPE":0,"NORAD_CAT_ID":49306,"ELEMENT_SET_NO":999,"REV_AT_EPOCH":23006,"BSTAR":-0.00016010155,"MEAN_MOTION_DOT":-5.1e-7,"MEAN_MOTION_DDOT":0},{"OBJECT_NAME":"ONEWEB-0381","OBJECT_ID":"2021-090AE","EPOCH":"2026-07-14T17:37:32.387232","CLASSIFICATION_TYPE":"U","MEAN_MOTION":13.20773171,"ECCENTRICITY":0.00017969,"INCLINATION":87.9186,"RA_OF_ASC_NODE":268.9518,"ARG_OF_PERICENTER":94.2702,"MEAN_ANOMALY":265.8637,"EPHEMERIS_TYPE":0,"NORAD_CAT_ID":49307,"ELEMENT_SET_NO":999,"REV_AT_EPOCH":23346,"BSTAR":-0.00027872827,"MEAN_MOTION_DOT":-0.000001,"MEAN_MOTION_DDOT":0},{"OBJECT_NAME":"ONEWEB-0382","OBJECT_ID":"2021-090AF","EPOCH":"2026-07-14T17:18:10.957824","CLASSIFICATION_TYPE":"U","MEAN_MOTION":13.20771714,"ECCENTRICITY":0.00017779,"INCLINATION":87.9185,"RA_OF_ASC_NODE":268.9485,"ARG_OF_PERICENTER":98.3614,"MEAN_ANOMALY":261.7721,"EPHEMERIS_TYPE":0,"NORAD_CAT_ID":49308,"ELEMENT_SET_NO":999,"REV_AT_EPOCH":23345,"BSTAR":0.000014450546,"MEAN_MOTION_DOT":1.9e-7,"MEAN_MOTION_DDOT":0},{"OBJECT_NAME":"ONEWEB-0383","OBJECT_ID":"2021-090AG","EPOCH":"2026-07-14T17:43:16.608288","CLASSIFICATION_TYPE":"U","MEAN_MOTION":13.14503113,"ECCENTRICITY":0.00018534,"INCLINATION":87.8973,"RA_OF_ASC_NODE":284.2112,"ARG_OF_PERICENTER":101.2302,"MEAN_ANOMALY":258.9036,"EPHEMERIS_TYPE":0,"NORAD_CAT_ID":49309,"ELEMENT_SET_NO":999,"REV_AT_EPOCH":23121,"BSTAR":-0.00042632165,"MEAN_MOTION_DOT":-0.00000145,"MEAN_MOTION_DDOT":0},{"OBJECT_NAME":"ONEWEB-0384","OBJECT_ID":"2021-090AH","EPOCH":"2026-07-14T17:00:34.127712","CLASSIFICATION_TYPE":"U","MEAN_MOTION":13.20814198,"ECCENTRICITY":0.00015877,"INCLINATION":87.9189,"RA_OF_ASC_NODE":268.9945,"ARG_OF_PERICENTER":99.0733,"MEAN_ANOMALY":261.058,"EPHEMERIS_TYPE":0,"NORAD_CAT_ID":49310,"ELEMENT_SET_NO":999,"REV_AT_EPOCH":23346,"BSTAR":0.000067389494,"MEAN_MOTION_DOT":4e-7,"MEAN_MOTION_DDOT":0},{"OBJECT_NAME":"ONEWEB-0385","OBJECT_ID":"2021-090AJ","EPOCH":"2026-07-14T17:08:27.907296","CLASSIFICATION_TYPE":"U","MEAN_MOTION":13.20770248,"ECCENTRICITY":0.00018411,"INCLINATION":87.9183,"RA_OF_ASC_NODE":268.9551,"ARG_OF_PERICENTER":96.4452,"MEAN_ANOMALY":263.6891,"EPHEMERIS_TYPE":0,"NORAD_CAT_ID":49311,"ELEMENT_SET_NO":999,"REV_AT_EPOCH":23343,"BSTAR":0.000162902,"MEAN_MOTION_DOT":7.9e-7,"MEAN_MOTION_DDOT":0},{"OBJECT_NAME":"ONEWEB-0386","OBJECT_ID":"2021-090AK","EPOCH":"2026-07-14T17:32:42.034848","CLASSIFICATION_TYPE":"U","MEAN_MOTION":13.20773257,"ECCENTRICITY":0.00017861,"INCLINATION":87.919,"RA_OF_ASC_NODE":268.9436,"ARG_OF_PERICENTER":98.0859,"MEAN_ANOMALY":262.0477,"EPHEMERIS_TYPE":0,"NORAD_CAT_ID":49312,"ELEMENT_SET_NO":999,"REV_AT_EPOCH":23345,"BSTAR":-0.00017342734,"MEAN_MOTION_DOT":-5.8e-7,"MEAN_MOTION_DDOT":0}]}
